start=new Date('2022-08-14T00:00:00.000Z').valueOf();
sats=[{"BSTAR":"0.00017358000000","EPOCH":"2022-08-13T09:55:42.170592","REV_AT_EPOCH":"10313","OBJECT_TYPE":"PAYLOAD","INCLINATION":"53.0545","PERIAPSIS":"546.209","CLASSIFICATION_TYPE":"U","MEAN_MOTION_DOT":"0.00002305","TIME_SYSTEM":"UTC","OBJECT_ID":"2020-070AW","SITE":"AFETR","COUNTRY_CODE":"US","RCS_SIZE":"LARGE","PERIOD":"95.592","MEAN_MOTION":"15.06396519","TLE_LINE1":"1 46576U 20070AW  22225.41368253  .00002305  00000-0  17358-3 0  9999","ECCENTRICITY":"0.00014660","FILE":"3535824","DECAY_DATE":null,"MEAN_MOTION_DDOT":"0.0000000000000","EPHEMERIS_TYPE":"0","GP_ID":"210134993","NORAD_CAT_ID":"46576","CENTER_NAME":"EARTH","OBJECT_NAME":"STARLINK-1677","RA_OF_ASC_NODE":"256.7378","ARG_OF_PERICENTER":"60.6978","APOAPSIS":"548.239","MEAN_ANOMALY":"299.4158","TLE_LINE2":"2 46576  53.0545 256.7378 0001466  60.6978 299.4158 15.06396519103134","REF_FRAME":"TEME","SEMIMAJOR_AXIS":"6925.359","LAUNCH_DATE":"2020-10-06","ELEMENT_SET_NO":"999","MEAN_ELEMENT_THEORY":"SGP4"},{"APOAPSIS":"548.304","MEAN_ANOMALY":"290.0984","ARG_OF_PERICENTER":"70.0173","SEMIMAJOR_AXIS":"6925.357","TLE_LINE2":"2 46577  53.0531 256.3098 0001562  70.0173 290.0984 15.06397168103140","REF_FRAME":"TEME","CENTER_NAME":"EARTH","OBJECT_NAME":"STARLINK-1682","RA_OF_ASC_NODE":"256.3098","MEAN_ELEMENT_THEORY":"SGP4","LAUNCH_DATE":"2020-10-06","ELEMENT_SET_NO":"999","EPHEMERIS_TYPE":"0","MEAN_MOTION_DDOT":"0.0000000000000","GP_ID":"210135242","FILE":"3535824","ECCENTRICITY":"0.00015620","DECAY_DATE":null,"NORAD_CAT_ID":"46577","MEAN_MOTION_DOT":"0.00002049","CLASSIFICATION_TYPE":"U","TIME_SYSTEM":"UTC","OBJECT_ID":"2020-070AX","PERIAPSIS":"546.140","PERIOD":"95.592","TLE_LINE1":"1 46577U 20070AX  22225.50951713  .00002049  00000-0  15644-3 0  9990","MEAN_MOTION":"15.06397168","SITE":"AFETR","RCS_SIZE":"LARGE","COUNTRY_CODE":"US","REV_AT_EPOCH":"10314","BSTAR":"0.00015644000000","EPOCH":"2022-08-13T12:13:42.280032","INCLINATION":"53.0531","OBJECT_TYPE":"PAYLOAD"},{"SITE":"AFETR","COUNTRY_CODE":"US","RCS_SIZE":"LARGE","PERIOD":"95.593","MEAN_MOTION":"15.06391769","TLE_LINE1":"1 46578U 20070AY  22225.42429613  .00001961  00000-0  15054-3 0  9998","PERIAPSIS":"546.167","CLASSIFICATION_TYPE":"U","MEAN_MOTION_DOT":"0.00001961","OBJECT_ID":"2020-070AY","TIME_SYSTEM":"UTC","OBJECT_TYPE":"PAYLOAD","INCLINATION":"53.0547","BSTAR":"0.00015054000000","EPOCH":"2022-08-13T10:10:59.185632","REV_AT_EPOCH":"10334","LAUNCH_DATE":"2020-10-06","ELEMENT_SET_NO":"999","MEAN_ELEMENT_THEORY":"SGP4","CENTER_NAME":"EARTH","OBJECT_NAME":"STARLINK-1683","RA_OF_ASC_NODE":"241.7519","APOAPSIS":"548.310","MEAN_ANOMALY":"290.1605","ARG_OF_PERICENTER":"69.9551","REF_FRAME":"TEME","TLE_LINE2":"2 46578  53.0547 241.7519 0001547  69.9551 290.1605 15.06391769103348","SEMIMAJOR_AXIS":"6925.374","NORAD_CAT_ID":"46578","ECCENTRICITY":"0.00015470","FILE":"3535824","DECAY_DATE":null,"EPHEMERIS_TYPE":"0","MEAN_MOTION_DDOT":"0.0000000000000","GP_ID":"210136493"},{"GP_ID":"210160449","EPHEMERIS_TYPE":"0","MEAN_MOTION_DDOT":"0.0000000000000","DECAY_DATE":null,"FILE":"3535825","ECCENTRICITY":"0.00016310","NORAD_CAT_ID":"46579","SEMIMAJOR_AXIS":"6925.350","TLE_LINE2":"2 46579  53.0529 256.0816 0001631  75.9490 284.1680 15.06399448103158","REF_FRAME":"TEME","ARG_OF_PERICENTER":"75.9490","APOAPSIS":"548.345","MEAN_ANOMALY":"284.1680","RA_OF_ASC_NODE":"256.0816","CENTER_NAME":"EARTH","OBJECT_NAME":"STARLINK-1705","MEAN_ELEMENT_THEORY":"SGP4","ELEMENT_SET_NO":"999","LAUNCH_DATE":"2020-10-06","REV_AT_EPOCH":"10315","EPOCH":"2022-08-13T13:28:00.851808","BSTAR":"0.00034128000000","INCLINATION":"53.0529","OBJECT_TYPE":"PAYLOAD","TIME_SYSTEM":"UTC","OBJECT_ID":"2020-070AZ","MEAN_MOTION_DOT":"0.00004805","CLASSIFICATION_TYPE":"U","PERIAPSIS":"546.086","TLE_LINE1":"1 46579U 20070AZ  22225.56112097  .00004805  00000-0  34128-3 0  9992","MEAN_MOTION":"15.06399448","PERIOD":"95.592","RCS_SIZE":"LARGE","COUNTRY_CODE":"US","SITE":"AFETR"},{"MEAN_ELEMENT_THEORY":"SGP4","ELEMENT_SET_NO":"999","LAUNCH_DATE":"2020-10-06","REF_FRAME":"TEME","TLE_LINE2":"2 46580  53.0546 256.4755 0001483  71.8895 288.2256 15.06399160103148","SEMIMAJOR_AXIS":"6925.351","MEAN_ANOMALY":"288.2256","APOAPSIS":"548.243","ARG_OF_PERICENTER":"71.8895","RA_OF_ASC_NODE":"256.4755","OBJECT_NAME":"STARLINK-1708","CENTER_NAME":"EARTH","NORAD_CAT_ID":"46580","GP_ID":"210135494","MEAN_MOTION_DDOT":"0.0000000000000","EPHEMERIS_TYPE":"0","DECAY_DATE":null,"ECCENTRICITY":"0.00014830","FILE":"3535824","MEAN_MOTION":"15.06399160","TLE_LINE1":"1 46580U 20070BA  22225.47264558  .00001765  00000-0  13737-3 0  9999","PERIOD":"95.592","COUNTRY_CODE":"US","RCS_SIZE":"LARGE","SITE":"AFETR","OBJECT_ID":"2020-070BA","TIME_SYSTEM":"UTC","CLASSIFICATION_TYPE":"U","MEAN_MOTION_DOT":"0.00001765","PERIAPSIS":"546.189","OBJECT_TYPE":"PAYLOAD","INCLINATION":"53.0546","REV_AT_EPOCH":"10314","EPOCH":"2022-08-13T11:20:36.578112","BSTAR":"0.00013737000000"},{"EPOCH":"2022-08-13T13:41:56.405472","BSTAR":"0.00007297900000","REV_AT_EPOCH":"10322","OBJECT_TYPE":"PAYLOAD","INCLINATION":"53.0526","PERIAPSIS":"546.374","TIME_SYSTEM":"UTC","OBJECT_ID":"2020-070BB","CLASSIFICATION_TYPE":"U","MEAN_MOTION_DOT":"0.00000806","COUNTRY_CODE":"US","RCS_SIZE":"LARGE","SITE":"AFETR","MEAN_MOTION":"15.06392869","TLE_LINE1":"1 46581U 20070BB  22225.57079173  .00000806  00000-0  72979-4 0  9997","PERIOD":"95.593","DECAY_DATE":null,"ECCENTRICITY":"0.00012440","FILE":"3535825","GP_ID":"210161451","EPHEMERIS_TYPE":"0","MEAN_MOTION_DDOT":"0.0000000000000","NORAD_CAT_ID":"46581","RA_OF_ASC_NODE":"251.0489","OBJECT_NAME":"STARLINK-1712","CENTER_NAME":"EARTH","REF_FRAME":"TEME","TLE_LINE2":"2 46581  53.0526 251.0489 0001244  78.3654 281.7475 15.06392869103221","SEMIMAJOR_AXIS":"6925.370","ARG_OF_PERICENTER":"78.3654","APOAPSIS":"548.097","MEAN_ANOMALY":"281.7475","ELEMENT_SET_NO":"999","LAUNCH_DATE":"2020-10-06","MEAN_ELEMENT_THEORY":"SGP4"},{"PERIAPSIS":"546.275","OBJECT_ID":"2020-070BC","TIME_SYSTEM":"UTC","CLASSIFICATION_TYPE":"U","MEAN_MOTION_DOT":"0.00001373","COUNTRY_CODE":"US","RCS_SIZE":"LARGE","SITE":"AFETR","MEAN_MOTION":"15.06395403","TLE_LINE1":"1 46582U 20070BC  22225.48969105  .00001373  00000-0  11108-3 0  9997","PERIOD":"95.592","EPOCH":"2022-08-13T11:45:09.306720","BSTAR":"0.00011108000000","REV_AT_EPOCH":"10321","OBJECT_TYPE":"PAYLOAD","INCLINATION":"53.0529","RA_OF_ASC_NODE":"251.4126","OBJECT_NAME":"STARLINK-1728","CENTER_NAME":"EARTH","TLE_LINE2":"2 46582  53.0529 251.4126 0001375  76.9573 283.1569 15.06395403103212","REF_FRAME":"TEME","SEMIMAJOR_AXIS":"6925.363","MEAN_ANOMALY":"283.1569","APOAPSIS":"548.180","ARG_OF_PERICENTER":"76.9573","ELEMENT_SET_NO":"999","LAUNCH_DATE":"2020-10-06","MEAN_ELEMENT_THEORY":"SGP4","DECAY_DATE":null,"ECCENTRICITY":"0.00013750","FILE":"3535824","GP_ID":"210135994","EPHEMERIS_TYPE":"0","MEAN_MOTION_DDOT":"0.0000000000000","NORAD_CAT_ID":"46582"},{"NORAD_CAT_ID":"46583","GP_ID":"210136243","MEAN_MOTION_DDOT":"0.0000000000000","EPHEMERIS_TYPE":"0","DECAY_DATE":null,"FILE":"3535824","ECCENTRICITY":"0.00011960","MEAN_ELEMENT_THEORY":"SGP4","ELEMENT_SET_NO":"999","LAUNCH_DATE":"2020-10-06","SEMIMAJOR_AXIS":"6925.371","REF_FRAME":"TEME","TLE_LINE2":"2 46583  53.0541 271.7804 0001196  81.7735 278.3390 15.06392813102916","ARG_OF_PERICENTER":"81.7735","APOAPSIS":"548.064","MEAN_ANOMALY":"278.3390","RA_OF_ASC_NODE":"271.7804","CENTER_NAME":"EARTH","OBJECT_NAME":"STARLINK-1729","INCLINATION":"53.0541","OBJECT_TYPE":"PAYLOAD","REV_AT_EPOCH":"10291","EPOCH":"2022-08-13T09:45:46.189440","BSTAR":"0.00017653000000","TLE_LINE1":"1 46583U 20070BD  22225.40678460  .00002348  00000-0  17653-3 0  9995","MEAN_MOTION":"15.06392813","PERIOD":"95.593","RCS_SIZE":"LARGE","COUNTRY_CODE":"US","SITE":"AFETR","TIME_SYSTEM":"UTC","OBJECT_ID":"2020-070BD","MEAN_MOTION_DOT":"0.00002348","CLASSIFICATION_TYPE":"U","PERIAPSIS":"546.407"},{"INCLINATION":"53.0542","OBJECT_TYPE":"PAYLOAD","REV_AT_EPOCH":"10322","EPOCH":"2022-08-13T13:26:02.709312","BSTAR":"0.00014926000000","TLE_LINE1":"1 46584U 20070BE  22225.55975358  .00001942  00000-0  14926-3 0  9997","MEAN_MOTION":"15.06391284","PERIOD":"95.593","RCS_SIZE":"LARGE","COUNTRY_CODE":"US","SITE":"AFETR","OBJECT_ID":"2020-070BE","TIME_SYSTEM":"UTC","MEAN_MOTION_DOT":"0.00001942","CLASSIFICATION_TYPE":"U","PERIAPSIS":"546.213","NORAD_CAT_ID":"46584","GP_ID":"210160700","EPHEMERIS_TYPE":"0","MEAN_MOTION_DDOT":"0.0000000000000","DECAY_DATE":null,"FILE":"3535825","ECCENTRICITY":"0.00014830","MEAN_ELEMENT_THEORY":"SGP4","ELEMENT_SET_NO":"999","LAUNCH_DATE":"2020-10-06","SEMIMAJOR_AXIS":"6925.375","TLE_LINE2":"2 46584  53.0542 251.0931 0001483  71.2325 288.8825 15.06391284103223","REF_FRAME":"TEME","MEAN_ANOMALY":"288.8825","APOAPSIS":"548.267","ARG_OF_PERICENTER":"71.2325","RA_OF_ASC_NODE":"251.0931","CENTER_NAME":"EARTH","OBJECT_NAME":"STARLINK-1732"},{"OBJECT_ID":"2020-070BF","TIME_SYSTEM":"UTC","CLASSIFICATION_TYPE":"U","MEAN_MOTION_DOT":"0.00001913","PERIAPSIS":"546.240","MEAN_MOTION":"15.06388739","TLE_LINE1":"1 46585U 20070BF  22225.44454531  .00001913  00000-0  14731-3 0  9993","PERIOD":"95.593","COUNTRY_CODE":"US","RCS_SIZE":"LARGE","SITE":"AFETR","REV_AT_EPOCH":"10320","EPOCH":"2022-08-13T10:40:08.714784","BSTAR":"0.00014731000000","OBJECT_TYPE":"PAYLOAD","INCLINATION":"53.0545","TLE_LINE2":"2 46585  53.0545 251.5987 0001456  67.1066 293.0077 15.06388739103205","REF_FRAME":"TEME","SEMIMAJOR_AXIS":"6925.383","APOAPSIS":"548.256","MEAN_ANOMALY":"293.0077","ARG_OF_PERICENTER":"67.1066","RA_OF_ASC_NODE":"251.5987","CENTER_NAME":"EARTH","OBJECT_NAME":"STARLINK-1736","MEAN_ELEMENT_THEORY":"SGP4","ELEMENT_SET_NO":"999","LAUNCH_DATE":"2020-10-06","GP_ID":"210135243","MEAN_MOTION_DDOT":"0.0000000000000","EPHEMERIS_TYPE":"0","DECAY_DATE":null,"ECCENTRICITY":"0.00014560","FILE":"3535824","NORAD_CAT_ID":"46585"}];
